[{"OBJECT_NAME":"YAOGAN-36 01A","OBJECT_ID":"2022-120A","EPOCH":"2026-03-09T18:17:39.175872","MEAN_MOTION":15.22125163,"ECCENTRICITY":0.00052111,"INCLINATION":34.9902,"RA_OF_ASC_NODE":190.0789,"ARG_OF_PERICENTER":178.8422,"MEAN_ANOMALY":181.2305,"EPHEMERIS_TYPE":0,"CLASSIFICATION_TYPE":"U","NORAD_CAT_ID":53943,"ELEMENT_SET_NO":999,"REV_AT_EPOCH":19214,"BSTAR":0.00051239163,"MEAN_MOTION_DOT":0.00012015,"MEAN_MOTION_DDOT":0},{"OBJECT_NAME":"STARLINK-30842","OBJECT_ID":"2023-177G","EPOCH":"2026-03-09T01:38:07.538784","MEAN_MOTION":15.24412214,"ECCENTRICITY":0.00013538,"INCLINATION":42.9998,"RA_OF_ASC_NODE":339.3436,"ARG_OF_PERICENTER":241.6779,"MEAN_ANOMALY":118.3935,"EPHEMERIS_TYPE":0,"CLASSIFICATION_TYPE":"U","NORAD_CAT_ID":58357,"ELEMENT_SET_NO":999,"REV_AT_EPOCH":12830,"BSTAR":0.00059008247,"MEAN_MOTION_DOT":0.00014531,"MEAN_MOTION_DDOT":0}]
